GALAXY 33 (G-33)        
1 54026U 22128A   26169.58334898  .00000073  00000+0  00000+0 0  9992
2 54026   0.0166  41.1207 0001650  41.8279 260.8775  1.00269760 13752
GALAXY 34 (G-34)        
1 54027U 22128B   26169.64307292  .00000052  00000+0  00000+0 0  9995
2 54027   0.0104  30.3042 0001513  67.6466 271.4326  1.00274211 13920
ANGOSAT 2               
1 54033U 22131A   26168.61616823  .00000130  00000+0  00000+0 0  9992
2 54033   0.0320  83.0963 0000715  28.7776  38.8139  1.00272126 13480
EUTELSAT HOTBIRD 13F    
1 54048U 22134A   26169.54089330  .00000081  00000+0  00000+0 0  9996
2 54048   0.0504 294.4606 0002113  61.3583 118.6917  1.00271171 13395
LDPE-2                  
1 54219U 22144A   26169.38655839  .00000120  00000+0  00000+0 0  9996
2 54219   5.6168  63.6447 0001833 102.0084  83.7717  1.00532831 11850
EUTELSAT HOTBIRD 13G    
1 54225U 22146A   26169.54089330  .00000081  00000+0  00000+0 0  9996
2 54225   0.0486 230.4404 0001911 314.0945 289.9639  1.00270372  7480
ZHONGXING-19            
1 54230U 22148A   26169.57078226 -.00000088  00000+0  00000+0 0  9997
2 54230   0.0175  20.2983 0002347  90.8153 164.3662  1.00271563 13394
GALAXY 31 (G-31)        
1 54243U 22153A   26169.58577566  .00000007  00000+0  00000+0 0  9999
2 54243   0.0167  73.5964 0001087   4.7088 278.3816  1.00271552  7141
GALAXY 32 (G-32)        
1 54244U 22153B   26169.59166903 -.00000181  00000+0  00000+0 0  9994
2 54244   0.0111  25.1390 0002080   9.2508 354.4398  1.00271685 13154
EUTELSAT 10B            
1 54259U 22157A   26169.54028663  .00000061  00000+0  00000+0 0  9995
2 54259   0.0642  97.3669 0001098  11.7636   2.1356  1.00265327 13042
GALAXY 35 (G-35)        
1 54741U 22170A   26169.52000653 -.00000168  00000+0  00000+0 0  9992
2 54741   0.0147  40.8490 0001800  42.9723 277.0248  1.00271956 12909
GALAXY 36 (G-36)        
1 54742U 22170B   26169.62622627 -.00000192  00000+0  00000+0 0  9992
2 54742   0.0139 170.5363 0002512 273.4342 319.3284  1.00272554 12781
METEOSAT-12 (MTG-I1)    
1 54743U 22170C   26169.32446212 -.00000014  00000+0  00000+0 0  9997
2 54743   0.7400  23.2065 0003214  71.0428 288.7161  1.00272916 12987
SHIJIAN-23 (SJ-23)      
1 55131U 23002A   26168.72928037 -.00000260  00000+0  00000+0 0  9990
2 55131   3.7196  78.3065 0003809 272.9008 325.0641  1.00087498 12517
APSTAR-6E               
1 55239U 23005A   26169.62989241 -.00000324  00000+0  00000+0 0  9997
2 55239   0.0391 247.5070 0001831 288.9741  91.1200  1.00271938 18706
USA 342                 
1 55263U 23008A   26166.33502449  .00000142  00000+0  00000+0 0  9990
2 55263   0.0090  64.0068 0000187 223.8693 120.1932  1.00270392 12493
LDPE-3A                 
1 55264U 23008B   26169.58698900  .00000059  00000+0  00000+0 0  9996
2 55264   2.3524  81.6466 0001136  60.7359 221.0480  0.99145033 11825
ELEKTRO-L 4             
1 55506U 23016A   26168.80039411 -.00000064  00000+0  00000+0 0  9991
2 55506   0.0744 162.3010 0000798  12.9032 184.7859  1.00270813 12346
AMAZONAS NEXUS          
1 55508U 23017A   26169.52633323 -.00000289  00000+0  00000+0 0  9995
2 55508   0.0374  36.3998 0005220  35.4429 323.4129  1.00275843  7059
ZHONGXING-26            
1 55686U 23023A   26169.63452475 -.00000360  00000+0  00000+0 0  9998
2 55686   0.0692  70.6834 0003371  15.7498 173.9937  1.00270112 12247
LUCH-5X (OLYMP-K 2)     
1 55841U 23031A   26168.76651992  .00000028  00000+0  00000+0 0  9998
2 55841   0.0237  60.4476 0000684 145.7824  37.7201  1.00272450 11949
GAOFEN-13 02            
1 55912U 23036A   26169.51919975 -.00000225  00000+0  00000+0 0  9994
2 55912   1.0208   1.3646 0004080 336.0538 264.5414  1.00270254 12106
SES-18                  
1 55970U 23038A   26169.62130794 -.00000107  00000+0  00000+0 0  9995
2 55970   0.0169 299.6964 0000121 324.7472 122.9796  1.00271473 12118
SES-19                  
1 55971U 23038B   26169.61156434  .00000081  00000+0  00000+0 0  9994
2 55971   0.0137  23.0826 0001460  60.3120 268.7154  1.00272115 12100
INTELSAT 40E (IS-40E)   
1 56174U 23052A   26169.62483850 -.00000180  00000+0  00000+0 0  9993
2 56174   0.0142  44.4220 0001943  81.4139 274.9633  1.00271281 11830
VIASAT-3 F1             
1 56370U 23060A   26169.62622627  .00000000  00000+0  00000+0 0  9997
2 56370   0.0247 347.7018 0001078  91.2582 324.3886  1.00270524 11444
ARCTURUS                
1 56371U 23060B   26167.95234863 -.00000068  00000+0  00000+0 0  9998
2 56371   2.7748  79.9563 0002558  49.6160 190.9835  1.00272378 11453
GS-1                    
1 56372U 23060C   26168.84323069 -.00000231  00000+0  00000+0 0  9997
2 56372   2.7275  79.8251 0003816 282.0465 297.1917  1.00274442  7541
BEIDOU-3 G4             
1 56564U 23066A   26169.63748252 -.00000287  00000+0  00000+0 0  9990
2 56564   0.4846 331.9073 0004383 180.0740 124.4257  1.00273278 11405
ARABSAT-7B (BADR-8)     
1 56757U 23075A   26169.61489580  .00000138  00000+0  00000+0 0  9992
2 56757   0.0750  27.5474 0004569 355.8676 130.8045  1.00272190 11136
NVS-01 (IRNSS-1J)       
1 56759U 23076A   26169.62743340 -.00000342  00000+0  00000+0 0  9991
2 56759   2.1617 244.2742 0003103  35.8685 342.0088  1.00264181 11132
